IRIDIUM 150             
1 43257U 18030J   24063.60036292  .00000203  00000+0  65570-4 0  9997
2 43257  86.3922 279.6708 0002326  95.5050 264.6411 14.34218670310395
IRIDIUM 143             
1 43258U 18030K   24063.58133487  .00000283  00000+0  94029-4 0  9998
2 43258  86.3925 279.7383 0002516  90.4727 269.6757 14.34218769310325
IRIDIUM 161             
1 43478U 18047C   24063.52431553  .00000226  00000+0  61186-4 0  9994
2 43478  86.4432  77.7249 0002244  91.0476 269.0982 14.43294159304601
IRIDIUM 152             
1 43479U 18047D   24063.55405462 -.00000004  00000+0 -86401-5 0  9992
2 43479  86.3904  77.5718 0002260  90.1014 270.0441 14.34216856302721
IRIDIUM 147             
1 43480U 18047E   24063.56039630  .00000079  00000+0  21150-4 0  9994
2 43480  86.3907  77.5595 0002056  92.0689 268.0742 14.34217385302719
IRIDIUM 110             
1 43481U 18047F   24063.56673907  .00000026  00000+0  20674-5 0  9999
2 43481  86.3909  77.6271 0001875  97.8744 262.2664 14.34217100302700
IRIDIUM 162             
1 43482U 18047G   24063.51812170  .00000221  00000+0  59785-4 0  9993
2 43482  86.4430  77.6289 0002175  89.7965 270.3485 14.43272961304595
IRIDIUM 160             
1 43569U 18061A   24063.44280582  .00000417  00000+0  14182-3 0  9991
2 43569  86.3952  46.0272 0002136  77.0235 283.1200 14.34218031293589
